NORAD_CAT_ID,OBJECT_NAME,OBJECT_TYPE,EPOCH,MEAN_MOTION,ECCENTRICITY,INCLINATION,RA_OF_ASC_NODE,ARG_OF_PERICENTER,MEAN_ANOMALY,BSTAR,MEAN_MOTION_DOT,MEAN_MOTION_DDOT,TLE_LINE0,TLE_LINE1,TLE_LINE2,SEMIMAJOR_AXIS,PERIOD,APOGEE,PERIGEE,DECAYED
53435.0,STARLINK-4542,PAYLOAD,2023-02-12 10:07:08,15.08847113,0.0001301,53.2147,97.468,81.0477,279.0662,0.0022528,0.00035755,0.0,0 STARLINK-4542,1 53435U 22097AZ  23043.42162826  .00035755  00000-0  22528-2 0  9999,2 53435  53.2147  97.4680 0001301  81.0477 279.0662 15.08847113 29494,6917.859,95.437,540.624,538.824,0.0
53435.0,STARLINK-4542,PAYLOAD,2023-02-13 03:36:22,15.08849766,0.0001233,53.2152,94.1973,74.0315,286.0813,0.00070383,0.00010934,0.0,0 STARLINK-4542,1 53435U 22097AZ  23044.15026605  .00010934  00000-0  70383-3 0  9999,2 53435  53.2152  94.1973 0001233  74.0315 286.0813 15.08849766 29140,6917.851,95.437,540.569,538.863,0.0
53435.0,STARLINK-4542,PAYLOAD,2023-02-13 09:57:55,15.08868259,0.0001425,53.2151,93.0074,91.3854,268.7301,0.0011075,0.00017395,0.0,0 STARLINK-4542,1 53435U 22097AZ  23044.41522021  .00017395  00000-0  11075-2 0  9991,2 53435  53.2151  93.0074 0001425  91.3854 268.7301 15.08868259 29183,6917.794,95.436,540.645,538.673,0.0
53435.0,STARLINK-4542,PAYLOAD,2023-02-14 03:27:09,15.08840519,0.0001441,53.2156,89.736,108.7113,251.4035,0.0012117,0.00019049,0.0,0 STARLINK-4542,1 53435U 22097AZ  23045.14386250  .00019049  00000-0  12117-2 0  9990,2 53435  53.2156  89.7360 0001441 108.7113 251.4035 15.08840519 29291,6917.879,95.438,540.741,538.747,0.0
53435.0,STARLINK-4542,PAYLOAD,2023-02-14 09:48:42,15.0884892,9.96e-05,53.2158,88.5464,88.3462,271.7645,0.0023444,0.0003723,0.0,0 STARLINK-4542,1 53435U 22097AZ  23045.40882317  .00037230  00000-0  23444-2 0  9991,2 53435  53.2158  88.5464 0000996  88.3462 271.7645 15.08848920 29790,6917.853,95.437,540.407,539.029,0.0
53435.0,STARLINK-4542,PAYLOAD,2023-02-14 19:21:00,15.0887026,0.0001075,53.2167,86.7622,311.9143,48.1758,0.0018219,0.00028851,0.0,0 STARLINK-4542,1 53435U 22097AZ  23045.80625961  .00028851  00000-0  18219-2 0  9998,2 53435  53.2167  86.7622 0001075 311.9143  48.1758 15.08870260 29856,6917.788,95.436,540.397,538.909,0.0
53435.0,STARLINK-4542,PAYLOAD,2023-02-15 06:28:43,15.08848668,0.0001435,53.2164,84.6826,110.2448,249.8698,0.0020328,0.0003222,0.0,0 STARLINK-4542,1 53435U 22097AZ  23046.26994831  .00032220  00000-0  20328-2 0  9993,2 53435  53.2164  84.6826 0001435 110.2448 249.8698 15.08848668 29461,6917.854,95.437,540.712,538.726,0.0
53435.0,STARLINK-4542,PAYLOAD,2023-02-15 11:14:52,15.08855701,0.0001157,53.2164,83.7889,103.2412,256.8709,0.0012533,0.00019723,0.0,0 STARLINK-4542,1 53435U 22097AZ  23046.46866612  .00019723  00000-0  12533-2 0  9992,2 53435  53.2164  83.7889 0001157 103.2412 256.8709 15.08855701 29955,6917.832,95.437,540.498,538.897,0.0
53435.0,STARLINK-4542,PAYLOAD,2023-02-15 19:11:48,15.08859012,0.0001071,53.2166,82.3023,89.4321,270.6794,0.00098816,0.00015482,0.0,0 STARLINK-4542,1 53435U 22097AZ  23046.79986419  .00015482  00000-0  98816-3 0  9993,2 53435  53.2166  82.3023 0001071  89.4321 270.6794 15.08859012 29543,6917.822,95.436,540.428,538.946,0.0
53435.0,STARLINK-4542,PAYLOAD,2023-02-16 09:30:16,15.08860331,0.0001284,53.2167,79.625,83.3687,276.7451,0.00061258,9.48e-05,0.0,0 STARLINK-4542,1 53435U 22097AZ  23047.39601919  .00009480  00000-0  61258-3 0  9990,2 53435  53.2167  79.6250 0001284  83.3687 276.7451 15.08860331 29632,6917.818,95.436,540.571,538.795,0.0
53435.0,STARLINK-4542,PAYLOAD,2023-02-16 19:02:35,15.08844572,0.0001071,53.2155,77.8436,98.5891,261.5223,4.6025e-05,4.45e-06,0.0,0 STARLINK-4542,1 53435U 22097AZ  23047.79346104  .00000445  00000-0  46025-4 0  9994,2 53435  53.2155  77.8436 0001071  98.5891 261.5223 15.08844572 30151,6917.866,95.437,540.472,538.991,0.0
53435.0,STARLINK-4542,PAYLOAD,2023-02-17 02:59:31,15.08813922,0.0001223,53.2163,76.3552,115.2203,244.8916,-0.00064651,-0.00010555,0.0,0 STARLINK-4542,1 53435U 22097AZ  23048.12466829 -.00010555  00000-0 -64651-3 0  9998,2 53435  53.2163  76.3552 0001223 115.2203 244.8916 15.08813922 29747,6917.96,95.439,540.671,538.979,0.0
53435.0,STARLINK-4542,PAYLOAD,2023-02-17 09:21:04,15.08813325,0.0001525,53.2171,75.166,98.4049,261.7116,-0.00025307,-4.31e-05,0.0,0 STARLINK-4542,1 53435U 22097AZ  23048.38963513 -.00004310  00000-0 -25307-3 0  9995,2 53435  53.2171  75.1660 0001525  98.4049 261.7116 15.08813325 30242,6917.962,95.439,540.882,538.772,0.0
53435.0,STARLINK-4542,PAYLOAD,2023-02-17 18:53:23,15.08828539,0.0001507,53.2171,73.3816,99.399,260.7173,0.00031004,4.648e-05,0.0,0 STARLINK-4542,1 53435U 22097AZ  23048.78707824  .00004648  00000-0  31004-3 0  9993,2 53435  53.2171  73.3816 0001507  99.3990 260.7173 15.08828539 29849,6917.915,95.438,540.823,538.738,0.0
53435.0,STARLINK-4542,PAYLOAD,2023-02-18 10:47:14,15.08861619,0.000134,53.2152,70.4066,106.9806,253.1333,0.0012963,0.00020415,0.0,0 STARLINK-4542,1 53435U 22097AZ  23049.44947475  .00020415  00000-0  12963-2 0  9997,2 53435  53.2152  70.4066 0001340 106.9806 253.1333 15.08861619 29940,6917.814,95.436,540.606,538.752,0.0
53435.0,STARLINK-4542,PAYLOAD,2023-02-18 18:44:10,15.08859435,0.0001225,53.2154,68.9201,95.596,264.5172,0.0010248,0.00016068,0.0,0 STARLINK-4542,1 53435U 22097AZ  23049.78067408  .00016068  00000-0  10248-2 0  9996,2 53435  53.2154  68.9201 0001225  95.5960 264.5172 15.08859435 29996,6917.821,95.436,540.533,538.839,0.0
53435.0,STARLINK-4542,PAYLOAD,2023-02-19 10:38:01,15.08863478,0.0001586,53.2158,65.9462,96.4837,263.6336,0.0012329,0.00019401,0.0,0 STARLINK-4542,1 53435U 22097AZ  23050.44306984  .00019401  00000-0  12329-2 0  9992,2 53435  53.2158  65.9462 0001586  96.4837 263.6336 15.08863478 30096,6917.809,95.436,540.771,538.576,0.0
53435.0,STARLINK-4542,PAYLOAD,2023-02-20 05:42:39,15.08840994,0.0001545,53.2151,62.3756,98.5567,261.56,0.0007218,0.00011218,0.0,0 STARLINK-4542,1 53435U 22097AZ  23051.23795328  .00011218  00000-0  72180-3 0  9994,2 53435  53.2151  62.3756 0001545  98.5567 261.5600 15.08840994 30217,6917.877,95.437,540.811,538.674,0.0
53435.0,STARLINK-4542,PAYLOAD,2023-02-20 10:28:48,15.0884741,0.0001205,53.2159,61.485,100.9226,259.1902,0.00046612,7.14e-05,0.0,0 STARLINK-4542,1 53435U 22097AZ  23051.43667304  .00007140  00000-0  46612-3 0  9998,2 53435  53.2159  61.4850 0001205 100.9226 259.1902 15.08847410 30705,6917.858,95.437,540.556,538.889,0.0
53435.0,STARLINK-4542,PAYLOAD,2023-02-21 00:47:17,15.08838083,0.0001593,53.2164,58.8067,103.9038,256.2132,0.00038105,5.781e-05,0.0,0 STARLINK-4542,1 53435U 22097AZ  23052.03283754  .00005781  00000-0  38105-3 0  9995,2 53435  53.2164  58.8067 0001593 103.9038 256.2132 15.08838083 30333,6917.886,95.438,540.853,538.649,0.0
53435.0,STARLINK-4542,PAYLOAD,2023-02-21 07:08:49,15.08844299,0.000102,53.2174,57.6197,78.385,281.7257,0.00050254,7.72e-05,0.0,0 STARLINK-4542,1 53435U 22097AZ  23052.29779732  .00007720  00000-0  50254-3 0  9993,2 53435  53.2174  57.6197 0001020  78.3850 281.7257 15.08844299 30839,6917.867,95.437,540.438,539.027,0.0
53435.0,STARLINK-4542,PAYLOAD,2023-02-21 16:41:08,15.08843225,0.0001248,53.2172,55.8341,83.4634,276.65,0.00060925,9.422e-05,0.0,0 STARLINK-4542,1 53435U 22097AZ  23052.69523815  .00009422  00000-0  60925-3 0  9993,2 53435  53.2172  55.8341 0001248  83.4634 276.6500 15.08843225 30895,6917.871,95.437,540.599,538.872,0.0
53435.0,STARLINK-4542,PAYLOAD,2023-02-22 06:59:36,15.08854893,0.0001302,53.217,53.1602,96.4067,263.7074,0.00044155,6.749e-05,0.0,0 STARLINK-4542,1 53435U 22097AZ  23053.29139150  .00006749  00000-0  44155-3 0  9991,2 53435  53.2170  53.1602 0001302  96.4067 263.7074 15.08854893 30525,6917.835,95.437,540.601,538.799,0.0
53435.0,STARLINK-4542,PAYLOAD,2023-02-22 16:31:55,15.08840395,0.0001613,53.2174,51.3737,90.2887,269.829,5.2115e-05,5.41e-06,0.0,0 STARLINK-4542,1 53435U 22097AZ  23053.68883579  .00000541  00000-0  52115-4 0  9995,2 53435  53.2174  51.3737 0001613  90.2887 269.8290 15.08840395 30580,6917.879,95.438,540.86,538.628,0.0
53435.0,STARLINK-4542,PAYLOAD,2023-02-23 10:01:09,15.08840859,0.0001496,53.2163,48.1032,101.962,258.154,0.00016962,2.413e-05,0.0,0 STARLINK-4542,1 53435U 22097AZ  23054.41747670  .00002413  00000-0  16962-3 0  9997,2 53435  53.2163  48.1032 0001496 101.9620 258.1540 15.08840859 31152,6917.878,95.438,540.778,538.708,0.0
53435.0,STARLINK-4542,PAYLOAD,2023-02-23 16:22:42,15.0883952,0.0001556,53.218,46.9136,97.4107,262.7063,0.00018256,2.619e-05,0.0,0 STARLINK-4542,1 53435U 22097AZ  23054.68243838  .00002619  00000-0  18256-3 0  9999,2 53435  53.2180  46.9136 0001556  97.4107 262.7063 15.08839520 31196,6917.882,95.438,540.823,538.67,0.0
53435.0,STARLINK-4542,PAYLOAD,2023-02-24 00:19:38,15.08843316,0.0001555,53.2179,45.4267,97.2777,262.8392,0.00038604,5.862e-05,0.0,0 STARLINK-4542,1 53435U 22097AZ  23055.01363887  .00005862  00000-0  38604-3 0  9996,2 53435  53.2179  45.4267 0001555  97.2777 262.8392 15.08843316 30781,6917.87,95.437,540.811,538.66,0.0
53435.0,STARLINK-4542,PAYLOAD,2023-02-24 06:41:10,15.08852962,0.0001601,53.218,44.2374,97.7144,262.403,0.00070407,0.00010939,0.0,0 STARLINK-4542,1 53435U 22097AZ  23055.27859694  .00010939  00000-0  70407-3 0  9998,2 53435  53.2180  44.2374 0001601  97.7144 262.4030 15.08852962 31282,6917.841,95.437,540.813,538.598,0.0
53435.0,STARLINK-4542,PAYLOAD,2023-02-24 16:13:29,15.08848597,0.0001676,53.2171,42.4531,82.759,277.3593,0.00043616,6.662e-05,0.0,0 STARLINK-4542,1 53435U 22097AZ  23055.67603696  .00006662  00000-0  43616-3 0  9991,2 53435  53.2171  42.4531 0001676  82.7590 277.3593 15.08848597 31343,6917.854,95.437,540.879,538.56,0.0
53435.0,STARLINK-4542,PAYLOAD,2023-02-25 00:10:25,15.08832558,0.0001541,53.2181,40.9665,89.126,270.9909,-0.00012652,-2.301e-05,0.0,0 STARLINK-4542,1 53435U 22097AZ  23056.00724066 -.00002301  00000-0 -12652-3 0  9998,2 53435  53.2181  40.9665 0001541  89.1260 270.9909 15.08832558 30935,6917.903,95.438,540.834,538.702,0.0
